[{"OBJECT_NAME":"STARLINK-35525","OBJECT_ID":"2025-237W","EPOCH":"2026-03-09T03:37:56.649504","MEAN_MOTION":15.30190816,"ECCENTRICITY":0.00010223,"INCLINATION":53.1581,"RA_OF_ASC_NODE":42.441,"ARG_OF_PERICENTER":74.7663,"MEAN_ANOMALY":285.3451,"EPHEMERIS_TYPE":0,"CLASSIFICATION_TYPE":"U","NORAD_CAT_ID":66134,"ELEMENT_SET_NO":999,"REV_AT_EPOCH":2252,"BSTAR":0.0006743776,"MEAN_MOTION_DOT":0.00019661,"MEAN_MOTION_DDOT":0},{"OBJECT_NAME":"BREEZE-M DEB","OBJECT_ID":"2006-006AL","EPOCH":"2026-03-08T08:38:21.331968","MEAN_MOTION":5.48366001,"ECCENTRICITY":0.49641842,"INCLINATION":51.6809,"RA_OF_ASC_NODE":91.6099,"ARG_OF_PERICENTER":69.1352,"MEAN_ANOMALY":336.1151,"EPHEMERIS_TYPE":0,"CLASSIFICATION_TYPE":"U","NORAD_CAT_ID":32497,"ELEMENT_SET_NO":999,"REV_AT_EPOCH":3490,"BSTAR":0.0024548879,"MEAN_MOTION_DOT":2.14e-5,"MEAN_MOTION_DDOT":0}]
